#aV2024  3 20  0  0  0.00000000     288 DD+AD WGS84 FIT  NGA
## 2306 259200.00000000   300.00000000 60389 0.0000000000000
+   32     1  2  3  4  5  6  7  8  9 10 11 12 13 14 15 16 17
+         18 19 20 21 22 23 24 25 26 27 28 29 30 31 32  0  0
+          0  0  0  0  0  0  0  0  0  0  0  0  0  0  0  0  0
+          0  0  0  0  0  0  0  0  0  0  0  0  0  0  0  0  0
+          0  0  0  0  0  0  0  0  0  0  0  0  0  0  0  0  0
++         2  2  2  2  2  2  2  2  2  2  2  2  2  2  2  2  2
++         2  2  2  2  2  2  2  2  2  2  2  2  2  2  2  0  0
++         0  0  0  0  0  0  0  0  0  0  0  0  0  0  0  0  0
++         0  0  0  0  0  0  0  0  0  0  0  0  0  0  0  0  0
++         0  0  0  0  0  0  0  0  0  0  0  0  0  0  0  0  0
%c cc cc ccc ccc cccc cccc cccc cccc ccccc ccccc ccccc ccccc
%c cc cc ccc ccc cccc cccc cccc cccc ccccc ccccc ccccc ccccc
%f  0.0000000  0.000000000  0.00000000000  0.000000000000000
%f  0.0000000  0.000000000  0.00000000000  0.000000000000000
%i    0    0    0    0      0      0      0      0         0
%i    0    0    0    0      0      0      0      0         0
/*      NGA, ST. LOUIS,MO.                                  
/*   EPHEMERIS COMPUTED FROM 2 DAYS OF DATA                 
/*   EPOCHA v9 SMOOTHER                                     
/*   G2296 IERS2010 SATIGS SATAPC                           
*  2024  3 20 15 25  0.00000000
P  1   8009.227130 -21297.822001 -13764.325300    175.000935                    
V  1  12923.105688 -11119.537292  25685.605288      0.020876                    
P  2  14399.178847 -21863.941678  -3020.708239   -467.168981                    
V  2   4989.774328  -1767.754470  31780.280235      0.062371                    
P  3   7216.543862 -13342.050349 -21936.199919    263.348551                    
V  3  26683.950612   6461.503198   4998.982735      0.222871                    
P  4   3579.115450 -22496.478397 -13532.845068    319.441151                    
V  4   6687.807104  16059.708516 -25025.743540      0.090354                    
P  5 -20388.698441   7100.907315  15356.901552   -166.094550                    
V  5 -19148.929561  -5179.980544 -22681.048648     -0.014116                    
P  6 -16434.307970  -2397.083789 -20688.098287    359.579130                    
V  6  17639.656828 -19536.495830 -11602.714662     -0.166906                    
P  7  -2195.778452 -18194.817142  19557.265445    -88.650507                    
V  7  17394.152011 -16554.928702 -14275.070701     -0.087023                    
P  8   9072.075902 -15550.256401  19279.212123     68.323517                    
V  8   9673.549897  22962.810539  14316.369564      0.263706                    
P  9  -7359.907943 -25439.987399  -1665.291870    131.211229                    
V  9   3440.713740    973.693599 -31634.076226      0.132413                    
P 10  22924.875128  10963.614627   8479.985016     -1.437679                    
V 10 -10476.969486   -657.601341  29598.097620     -0.023494                    
P 11 -21473.887735   8485.014362 -13061.905572   -612.447249                    
V 11  10339.283715 -13205.502446 -25573.683986     -0.114916                    
P 12  -9213.093220  12921.779308 -21576.946313   -488.952406                    
V 12 -25456.129926  -8165.402064   6120.734499     -0.035608                    
P 13 -13857.974772   6394.507985  21510.524721    635.778277                    
V 13  -4957.479816 -27351.912282   5111.487563      0.032663                    
P 14 -20107.484150 -13432.891326  11234.018452    355.394400                    
V 14  14404.410202    899.821332  26722.722949      0.097147                    
P 15  -7236.574980  16764.430157  18728.072954    139.662987                    
V 15 -12613.112275 -21642.237124  14333.577750      0.040104                    
P 16  23962.878939   -821.133156  11569.682971   -336.673718                    
V 16  13692.008994   6582.850443 -26662.139980      0.089536                    
P 17 -12547.023880 -20536.964633 -10640.424791    712.966994                    
V 17  -1009.016830 -14354.181313  27954.159551     -0.015178                    
P 18   2154.373529  17330.759147  19966.679453   -579.213977                    
V 18 -18307.465827  17556.243105 -13453.070350     -0.073566                    
P 19 -15170.499986 -12745.105614 -18050.688715    456.634504                    
V 19  -3178.671264 -22192.855468  18171.603868      0.053153                    
P 20 -26073.701412   1844.625588   4284.389168    383.233244                    
V 20  -5242.531911  -3388.022834 -31046.435565     -0.014040                    
P 21  16972.059215 -19635.680887   2144.939724    130.605078                    
V 21   1497.913128   3979.234365  32293.585111     -0.015231                    
P 22 -23779.557610 -10805.622364   4276.713776     13.037255                    
V 22   5616.814002  -1287.001154  31341.140083     -0.058627                    
P 23  13196.380182  14793.560742  17793.187342    181.481373                    
V 23 -22250.054834  -3098.562302  18918.197237      0.087303                    
P 24 -14642.349648  21821.600562  -2108.487082   -448.898787                    
V 24  -4516.951632   -631.017838  31273.850709     -0.051829                    
P 25   2874.872140  16126.971388 -21289.647840    491.791690                    
V 25 -25800.040029  -4811.139340  -6980.528764      0.009703                    
P 26  26468.959199   3943.422564   -152.439894    177.215656                    
V 26   -506.915374   3387.684601 -30854.318617     -0.046278                    
P 27  14896.283165  -2658.009900  21564.567133    -13.152314                    
V 27   8484.582864  26716.794003  -2113.609054     -0.027283                    
P 28  15198.698784   5027.677771 -21209.181182   -171.528091                    
V 28 -17087.409716  20772.269026  -7330.903985     -0.141351                    
P 29   3591.495475  26043.119363  -3410.460989   -604.299151                    
V 29  -3405.382928  -3602.341504 -31685.194374      0.010416                    
P 30 -11900.817372 -10427.055760  21470.458090   -417.085565                    
V 30  18439.052955 -19780.031423    348.541728      0.053283                    
P 31  20582.138740  -4350.113507 -16659.649989   -228.001462                    
V 31 -13131.160740  15979.340751 -20263.883229     -0.000554                    
P 32  15134.322194  17569.856576 -12925.209856   -616.384593                    
V 32   3044.567815  16533.325928  25428.952487     -0.011154                    
EOF
